{"type": "FeatureCollection", "features": [{"type": "Feature", "properties": {"norad_id": 28890, "name": "BEIJING 1", "group": "dmc", "lat": -15.643338543641677, "lon": 106.3939464755839, "alt_km": 697.4874149002972, "timestamp": "2025-12-02T13:52:16.942151+00:00", "meta": {"OBJECT_NAME": "BEIJING 1", "OBJECT_ID": "2005-043A", "EPOCH": "2025-12-02T07:22:46.091424", "MEAN_MOTION": 14.63349891, "ECCENTRICITY": 0.00147726, "INCLINATION": 98.2649, "RA_OF_ASC_NODE": 103.7902, "ARG_OF_PERICENTER": 173.0999, "MEAN_ANOMALY": 187.0409, "EPHEMERIS_TYPE": 0, "CLASSIFICATION_TYPE": "U", "NORAD_CAT_ID": 28890, "ELEMENT_SET_NO": 999, "REV_AT_EPOCH": 7185, "BSTAR": 0.00012580272, "MEAN_MOTION_DOT": 6.02e-06, "MEAN_MOTION_DDOT": 0}, "tle": {"line1": "1 28890U 05043A   25336.30747791  .00000602  00000+0  12580-3 0  9992", "line2": "2 28890  98.2649 103.7902 0014772 173.0999 187.0409 14.63349891 71856"}}, "geometry": {"type": "Point", "coordinates": [106.3939464755839, -15.643338543641677]}}, {"type": "Feature", "properties": {"norad_id": 33320, "name": "HUANJING 1A (HJ-1A)", "group": "dmc", "lat": 0.8520057186527898, "lon": -34.81289445896646, "alt_km": 615.5259150810616, "timestamp": "2025-12-02T13:52:16.942174+00:00", "meta": {"OBJECT_NAME": "HUANJING 1A (HJ-1A)", "OBJECT_ID": "2008-041A", "EPOCH": "2025-12-02T07:23:29.992992", "MEAN_MOTION": 14.83340591, "ECCENTRICITY": 0.00206811, "INCLINATION": 97.6535, "RA_OF_ASC_NODE": 325.043, "ARG_OF_PERICENTER": 66.6475, "MEAN_ANOMALY": 293.6913, "EPHEMERIS_TYPE": 0, "CLASSIFICATION_TYPE": "U", "NORAD_CAT_ID": 33320, "ELEMENT_SET_NO": 999, "REV_AT_EPOCH": 92921, "BSTAR": 0.00024703614, "MEAN_MOTION_DOT": 1.98e-05, "MEAN_MOTION_DDOT": 0}, "tle": {"line1": "1 33320U 08041A   25336.30798603  .00001980  00000+0  24704-3 0  9996", "line2": "2 33320  97.6535 325.0430 0020681  66.6475 293.6913 14.83340591929210"}}, "geometry": {"type": "Point", "coordinates": [-34.81289445896646, 0.8520057186527898]}}, {"type": "Feature", "properties": {"norad_id": 33321, "name": "HUANJING 1B (HJ-1B)", "group": "dmc", "lat": -62.44509878233703, "lon": 134.11910343649356, "alt_km": 646.7741659365302, "timestamp": "2025-12-02T13:52:16.942187+00:00", "meta": {"OBJECT_NAME": "HUANJING 1B (HJ-1B)", "OBJECT_ID": "2008-041B", "EPOCH": "2025-12-02T06:18:06.792768", "MEAN_MOTION": 14.82777192, "ECCENTRICITY": 0.00381363, "INCLINATION": 97.6395, "RA_OF_ASC_NODE": 328.7237, "ARG_OF_PERICENTER": 108.8738, "MEAN_ANOMALY": 251.6618, "EPHEMERIS_TYPE": 0, "CLASSIFICATION_TYPE": "U", "NORAD_CAT_ID": 33321, "ELEMENT_SET_NO": 999, "REV_AT_EPOCH": 92922, "BSTAR": 0.00019698886, "MEAN_MOTION_DOT": 1.561e-05, "MEAN_MOTION_DDOT": 0}, "tle": {"line1": "1 33321U 08041B   25336.26257862  .00001561  00000+0  19699-3 0  9991", "line2": "2 33321  97.6395 328.7237 0038136 108.8738 251.6618 14.82777192929222"}}, "geometry": {"type": "Point", "coordinates": [134.11910343649356, -62.44509878233703]}}, {"type": "Feature", "properties": {"norad_id": 33446, "name": "YAOGAN-4", "group": "dmc", "lat": 19.935617479640335, "lon": 89.67081040366536, "alt_km": 630.8192189055571, "timestamp": "2025-12-02T13:52:16.942200+00:00", "meta": {"OBJECT_NAME": "YAOGAN-4", "OBJECT_ID": "2008-061A", "EPOCH": "2025-12-02T06:40:27.864192", "MEAN_MOTION": 14.82628721, "ECCENTRICITY": 0.00144944, "INCLINATION": 97.9168, "RA_OF_ASC_NODE": 266.481, "ARG_OF_PERICENTER": 358.2304, "MEAN_ANOMALY": 1.8855, "EPHEMERIS_TYPE": 0, "CLASSIFICATION_TYPE": "U", "NORAD_CAT_ID": 33446, "ELEMENT_SET_NO": 999, "REV_AT_EPOCH": 91648, "BSTAR": 0.00026740206, "MEAN_MOTION_DOT": 2.104e-05, "MEAN_MOTION_DDOT": 0}, "tle": {"line1": "1 33446U 08061A   25336.27810028  .00002104  00000+0  26740-3 0  9990", "line2": "2 33446  97.9168 266.4810 0014494 358.2304   1.8855 14.82628721916482"}}, "geometry": {"type": "Point", "coordinates": [89.67081040366536, 19.935617479640335]}}, {"type": "Feature", "properties": {"norad_id": 35681, "name": "DEIMOS-1", "group": "dmc", "lat": -31.406090918690232, "lon": -47.09262389288938, "alt_km": 652.211369104728, "timestamp": "2025-12-02T13:52:16.942211+00:00", "meta": {"OBJECT_NAME": "DEIMOS-1", "OBJECT_ID": "2009-041A", "EPOCH": "2025-12-02T08:01:49.848672", "MEAN_MOTION": 14.7492654, "ECCENTRICITY": 0.00026654, "INCLINATION": 97.7145, "RA_OF_ASC_NODE": 137.4228, "ARG_OF_PERICENTER": 98.4794, "MEAN_ANOMALY": 261.6718, "EPHEMERIS_TYPE": 0, "CLASSIFICATION_TYPE": "U", "NORAD_CAT_ID": 35681, "ELEMENT_SET_NO": 999, "REV_AT_EPOCH": 87786, "BSTAR": 0.00015613794, "MEAN_MOTION_DOT": 1.001e-05, "MEAN_MOTION_DDOT": 0}, "tle": {"line1": "1 35681U 09041A   25336.33460473  .00001001  00000+0  15614-3 0  9997", "line2": "2 35681  97.7145 137.4228 0002665  98.4794 261.6718 14.74926540877864"}}, "geometry": {"type": "Point", "coordinates": [-47.09262389288938, -31.406090918690232]}}, {"type": "Feature", "properties": {"norad_id": 35683, "name": "UK-DMC 2", "group": "dmc", "lat": -22.196977357609548, "lon": -71.46115071778443, "alt_km": 648.8514773677152, "timestamp": "2025-12-02T13:52:16.942223+00:00", "meta": {"OBJECT_NAME": "UK-DMC 2", "OBJECT_ID": "2009-041C", "EPOCH": "2025-12-02T08:04:30.379008", "MEAN_MOTION": 14.75583931, "ECCENTRICITY": 0.00012688, "INCLINATION": 97.8556, "RA_OF_ASC_NODE": 111.5337, "ARG_OF_PERICENTER": 102.817, "MEAN_ANOMALY": 257.3182, "EPHEMERIS_TYPE": 0, "CLASSIFICATION_TYPE": "U", "NORAD_CAT_ID": 35683, "ELEMENT_SET_NO": 999, "REV_AT_EPOCH": 87753, "BSTAR": 0.00021424822, "MEAN_MOTION_DOT": 1.412e-05, "MEAN_MOTION_DDOT": 0}, "tle": {"line1": "1 35683U 09041C   25336.33646272  .00001412  00000+0  21425-3 0  9995", "line2": "2 35683  97.8556 111.5337 0001268 102.8170 257.3182 14.75583931877538"}}, "geometry": {"type": "Point", "coordinates": [-71.46115071778443, -22.196977357609548]}}, {"type": "Feature", "properties": {"norad_id": 40715, "name": "DMC3-FM1", "group": "dmc", "lat": -71.01969534685655, "lon": 1.072277410211382, "alt_km": 620.5530335054173, "timestamp": "2025-12-02T13:52:16.942233+00:00", "meta": {"OBJECT_NAME": "DMC3-FM1", "OBJECT_ID": "2015-032A", "EPOCH": "2025-12-02T06:16:14.306880", "MEAN_MOTION": 14.85410354, "ECCENTRICITY": 0.00054279, "INCLINATION": 97.67, "RA_OF_ASC_NODE": 203.8349, "ARG_OF_PERICENTER": 358.2138, "MEAN_ANOMALY": 1.9057, "EPHEMERIS_TYPE": 0, "CLASSIFICATION_TYPE": "U", "NORAD_CAT_ID": 40715, "ELEMENT_SET_NO": 999, "REV_AT_EPOCH": 56067, "BSTAR": 0.00013303849, "MEAN_MOTION_DOT": 1.095e-05, "MEAN_MOTION_DDOT": 0}, "tle": {"line1": "1 40715U 15032A   25336.26127670  .00001095  00000+0  13304-3 0  9996", "line2": "2 40715  97.6700 203.8349 0005427 358.2138   1.9057 14.85410354560676"}}, "geometry": {"type": "Point", "coordinates": [1.072277410211382, -71.01969534685655]}}, {"type": "Feature", "properties": {"norad_id": 40716, "name": "DMC3-FM2", "group": "dmc", "lat": 46.98543907459412, "lon": 33.88787818037657, "alt_km": 610.9720503238232, "timestamp": "2025-12-02T13:52:16.942244+00:00", "meta": {"OBJECT_NAME": "DMC3-FM2", "OBJECT_ID": "2015-032B", "EPOCH": "2025-12-02T06:48:38.997216", "MEAN_MOTION": 14.85411811, "ECCENTRICITY": 0.00060744, "INCLINATION": 97.6757, "RA_OF_ASC_NODE": 205.293, "ARG_OF_PERICENTER": 2.1352, "MEAN_ANOMALY": 357.9888, "EPHEMERIS_TYPE": 0, "CLASSIFICATION_TYPE": "U", "NORAD_CAT_ID": 40716, "ELEMENT_SET_NO": 999, "REV_AT_EPOCH": 56067, "BSTAR": 0.00014258823, "MEAN_MOTION_DOT": 1.177e-05, "MEAN_MOTION_DDOT": 0}, "tle": {"line1": "1 40716U 15032B   25336.28378469  .00001177  00000+0  14259-3 0  9994", "line2": "2 40716  97.6757 205.2930 0006074   2.1352 357.9888 14.85411811560678"}}, "geometry": {"type": "Point", "coordinates": [33.88787818037657, 46.98543907459412]}}, {"type": "Feature", "properties": {"norad_id": 40717, "name": "DMC3-FM3", "group": "dmc", "lat": 16.833641269920086, "lon": -155.13728362396972, "alt_km": 609.2300775897666, "timestamp": "2025-12-02T13:52:16.942255+00:00", "meta": {"OBJECT_NAME": "DMC3-FM3", "OBJECT_ID": "2015-032C", "EPOCH": "2025-12-02T05:42:41.834016", "MEAN_MOTION": 14.854053, "ECCENTRICITY": 0.00054308, "INCLINATION": 97.6812, "RA_OF_ASC_NODE": 206.875, "ARG_OF_PERICENTER": 4.418, "MEAN_ANOMALY": 355.7083, "EPHEMERIS_TYPE": 0, "CLASSIFICATION_TYPE": "U", "NORAD_CAT_ID": 40717, "ELEMENT_SET_NO": 999, "REV_AT_EPOCH": 56067, "BSTAR": 0.00010255731, "MEAN_MOTION_DOT": 8.32e-06, "MEAN_MOTION_DDOT": 0}, "tle": {"line1": "1 40717U 15032C   25336.23798419  .00000832  00000+0  10256-3 0  9991", "line2": "2 40717  97.6812 206.8750 0005430   4.4180 355.7083 14.85405300560676"}}, "geometry": {"type": "Point", "coordinates": [-155.13728362396972, 16.833641269920086]}}]}